{
    "links": {
        "self": "http://www.neowsapp.com/rest/v1/neo/3182830?api_key=iIulBulltgU6a56xZRHN4H3l9WmuAYTsLGpBGhQ2"
    },
    "id": "3182830",
    "neo_reference_id": "3182830",
    "name": "(2004 KE17)",
    "designation": "2004 KE17",
    "nasa_jpl_url": "http://ssd.jpl.nasa.gov/sbdb.cgi?sstr=3182830",
    "absolute_magnitude_h": 21.5,
    "estimated_diameter": {
        "kilometers": {
            "estimated_diameter_min": 0.1332155667,
            "estimated_diameter_max": 0.2978790628
        },
        "meters": {
            "estimated_diameter_min": 133.2155666981,
            "estimated_diameter_max": 297.8790627982
        },
        "miles": {
            "estimated_diameter_min": 0.0827762899,
            "estimated_diameter_max": 0.1850934111
        },
        "feet": {
            "estimated_diameter_min": 437.0589598459,
            "estimated_diameter_max": 977.2935443908
        }
    },
    "is_potentially_hazardous_asteroid": true,
    "close_approach_data": [
        {
            "close_approach_date": "2004-06-01",
            "close_approach_date_full": "2004-Jun-01 17:52",
            "epoch_date_close_approach": 1086112320000,
            "relative_velocity": {
                "kilometers_per_second": "17.206453646",
                "kilometers_per_hour": "61943.2331255618",
                "miles_per_hour": "38489.1161607137"
            },
            "miss_distance": {
                "astronomical": "0.0618116075",
                "lunar": "24.0447153175",
                "kilometers": "9246884.823276025",
                "miles": "5745747.795318145"
            },
            "orbiting_body": "Earth"
        }
    ],
    "orbital_data": {
        "orbit_id": "12",
        "orbit_determination_date": "2017-04-06 09:12:43",
        "first_observation_date": "2004-05-28",
        "last_observation_date": "2004-06-07",
        "data_arc_in_days": 10,
        "observations_used": 62,
        "orbit_uncertainty": "9",
        "minimum_orbit_intersection": ".045664",
        "jupiter_tisserand_invariant": "2.878",
        "epoch_osculation": "2453157.5",
        "eccentricity": ".6230723087745613",
        "semi_major_axis": "2.807201562421295",
        "inclination": "26.9789294758101",
        "ascending_node_longitude": "68.91476585392836",
        "orbital_period": "1717.943285102288",
        "perihelion_distance": "1.058112003727903",
        "perihelion_argument": "175.2920501698792",
        "aphelion_distance": "4.556291121114688",
        "perihelion_time": "2453153.887798536774",
        "mean_anomaly": ".756947297409724",
        "mean_motion": ".2095529014967251",
        "equinox": "J2000",
        "orbit_class": {
            "orbit_class_type": "AMO",
            "orbit_class_description": "Near-Earth asteroid orbits similar to that of 1221 Amor",
            "orbit_class_range": "1.017 AU < q (perihelion) < 1.3 AU"
        }
    },
    "is_sentry_object": false
}